STARLINK-4402           
1 53509U 22099AW  25330.88491612  .00000534  00000+0  46105-4 0  9997
2 53509  97.6046  89.5678 0000851 130.6598 229.4700 15.01260042180560
YAOGAN-35 04A           
1 53522U 22100A   25331.22200286 -.00000020  00000+0  72009-6 0  9994
2 53522  35.0083 241.7744 0003278 245.3305 114.7069 15.23002976182452
YAOGAN-35 04B           
1 53524U 22100C   25331.17341854  .00012147  00000+0  41139-3 0  9996
2 53524  35.0032 236.8761 0008323 246.6484 113.3358 15.29732389 74214
YAOGAN-35 04C           
1 53526U 22100E   25331.18444292  .00010163  00000+0  48426-3 0  9991
2 53526  34.9955 260.9737 0008486  27.5307 332.5854 15.18337481182206
STARLINK-4511           
1 53527U 22101A   25331.16670139  .00421823  78988-4  12752-2 0  9998
2 53527  53.1934 102.9752 0008728 288.2422 298.7188 15.91571860  6022
STARLINK-4503           
1 53528U 22101B   25330.84247580  .00001383  00000+0  10496-3 0  9997
2 53528  53.2144 175.8182 0001556  93.6504 266.4666 15.08843558180631
STARLINK-4478           
1 53529U 22101C   25330.90135551  .00000452  00000+0  46466-4 0  9992
2 53529  53.2152 175.5635 0001377  91.3477 268.7673 15.08843739180641
STARLINK-4482           
1 53530U 22101D   25330.84986179  .00000092  00000+0  23848-4 0  9996
2 53530  53.2153 176.0098 0001580  92.6891 267.4282 15.08841464180637
STARLINK-4487           
1 53531U 22101E   25330.89768314 -.00000232  00000+0  35455-5 0  9996
2 53531  53.2155 175.5697 0001442  88.7473 271.3684 15.08837240180646
STARLINK-4483           
1 53532U 22101F   25330.99703750 -.00000615  00000+0 -20555-4 0  9991
2 53532  53.2154 175.1269 0001674  88.4987 271.6197 15.08838333180669
STARLINK-4493           
1 53533U 22101G   25330.99335432 -.00000065  00000+0  13989-4 0  9991
2 53533  53.2162 175.1328 0001493  90.5832 269.5332 15.08839699180660
STARLINK-4138           
1 53535U 22101J   25330.98967705 -.00000583  00000+0 -18570-4 0  9993
2 53535  53.2158 175.1592 0001475  92.7705 267.3456 15.08839592180668
STARLINK-4053           
1 53536U 22101K   25330.83236531  .00002024  00000+0  14526-3 0  9990
2 53536  53.2144 165.7885 0001556  88.3095 271.8075 15.08829111180772
STARLINK-4120           
1 53537U 22101L   25331.18935067  .00002556  00000+0  17869-3 0  9993
2 53537  53.2154 174.2344 0001023 118.5420 241.5675 15.08824627180694
STARLINK-4118           
1 53538U 22101M   25331.16670139 -.00017094  00000+0 -10036-2 0  9991
2 53538  53.2172 164.3524 0001298  83.4620 279.3030 15.10764492  5833
STARLINK-4123           
1 53539U 22101N   25330.85350060  .00003643  00000+0  24671-3 0  9999
2 53539  53.2154 175.7693 0001641  96.0320 264.0860 15.08859425180649
STARLINK-4486           
1 53540U 22101P   25330.86648286 -.00000396  00000+0 -67405-5 0  9990
2 53540  53.2154 166.0701 0002346  97.3054 262.8205 15.08837110181462
STARLINK-4485           
1 53541U 22101Q   25330.84615376  .00000081  00000+0  23180-4 0  9993
2 53541  53.2149 175.8023 0001508  97.0699 263.0464 15.08842621181332
STARLINK-4489           
1 53542U 22101R   25330.82499672  .00000613  00000+0  56595-4 0  9998
2 53542  53.2163 165.9014 0001617  96.3939 263.7237 15.08842038181460
STARLINK-4297           
1 53543U 22101S   25330.90596161  .00001422  00000+0  10744-3 0  9993
2 53543  53.2150 165.6023 0000996  90.6528 269.4578 15.08835709181473
STARLINK-4303           
1 53544U 22101T   25330.81764235 -.00000668  00000+0 -23910-4 0  9996
2 53544  53.2152 165.9302 0001254  85.6397 274.4738 15.08834428181443
STARLINK-4475           
1 53545U 22101U   25330.89491539 -.00000111  00000+0  11099-4 0  9996
2 53545  53.2157 165.5840 0001512  95.1732 264.9433 15.08840170181478
STARLINK-4477           
1 53546U 22101V   25330.83322156  .00000388  00000+0  42491-4 0  9994
2 53546  53.2157 155.3919 0001431  94.6870 265.4286 15.08837798180923
STARLINK-4474           
1 53547U 22101W   25330.82131397  .00000107  00000+0  24837-4 0  9992
2 53547  53.2153 165.9151 0001569  95.1606 264.9565 15.08843299181445
STARLINK-4513           
1 53548U 22101X   25330.87283721 -.00004433  00000+0 -26056-3 0  9999
2 53548  53.2147 165.6831 0001570  86.2121 273.9050 15.08845652180786
STARLINK-4518           
1 53550U 22101Z   25330.86915910  .00000039  00000+0  20545-4 0  9997
2 53550  53.2153 165.6997 0001443  87.5303 272.5854 15.08838331181441
STARLINK-4514           
1 53551U 22101AA  25330.81028134  .00000774  00000+0  66742-4 0  9991
2 53551  53.2155 165.9650 0001818  97.6168 262.5030 15.08842019181432
STARLINK-4495           
1 53552U 22101AB  25330.86179800 -.00000282  00000+0  39127-6 0  9998
2 53552  53.2152 165.7316 0001163  90.6226 269.4900 15.08837966181435
STARLINK-4501           
1 53553U 22101AC  25330.85442656 -.00000623  00000+0 -21065-4 0  9990
2 53553  53.2154 165.6387 0001527  92.1854 267.9313 15.08834185181445
STARLINK-4506           
1 53554U 22101AD  25330.98789253 -.00000102  00000+0  11690-4 0  9996
2 53554  53.2159 165.1763 0001453  93.6202 266.4956 15.08829407180802
STARLINK-4504           
1 53555U 22101AE  25330.86547845  .00000283  00000+0  35851-4 0  9997
2 53555  53.2157 165.7160 0001309  92.0891 268.0251 15.08838850181444
STARLINK-4505           
1 53556U 22101AF  25330.91332203 -.00000682  00000+0 -24781-4 0  9999
2 53556  53.2162 165.5047 0001737  96.8107 263.3082 15.08832938180798
STARLINK-4502           
1 53557U 22101AG  25330.99059662  .00001198  00000+0  93345-4 0  9996
2 53557  53.2162 165.1541 0001334  94.9364 265.1781 15.08841434181452
STARLINK-4494           
1 53558U 22101AH  25330.84933794  .00000773  00000+0  66645-4 0  9999
2 53558  53.2155 160.5087 0001409  88.7817 271.3337 15.08844097181517
STARLINK-4508           
1 53559U 22101AJ  25330.85077439 -.00001543  00000+0 -78893-4 0  9992
2 53559  53.2166 165.7828 0001514 104.7200 255.3961 15.08824003180780
STARLINK-4564           
1 53560U 22101AK  25330.75970327 -.00000167  00000+0  75717-5 0  9994
2 53560  53.2175 156.3753 0001501  95.5119 264.6044 15.08835944180902
STARLINK-4563           
1 53561U 22101AL  25330.77715482  .00000597  00000+0  55579-4 0  9995
2 53561  53.2155 166.1143 0001406  93.6115 266.5038 15.08838198180775
STARLINK-4565           
1 53562U 22101AM  25330.75601627 -.00000732  00000+0 -27918-4 0  9998
2 53562  53.2162 156.3548 0001543  96.4248 263.6920 15.08837397181560
STARLINK-4561           
1 53563U 22101AN  25330.82962545  .00000522  00000+0  50881-4 0  9996
2 53563  53.2166 156.0995 0001542  93.8822 266.2347 15.08837731180918
STARLINK-4577           
1 53564U 22101AP  25330.74864452 -.00000279  00000+0  58682-6 0  9995
2 53564  53.2159 156.3084 0001611  90.5670 269.5507 15.08837062180905
STARLINK-4575           
1 53565U 22101AQ  25330.82321602 -.00000892  00000+0 -37995-4 0  9994
2 53565  53.2163 156.0631 0001029  96.0977 264.0133 15.08838915181577
STARLINK-4576           
1 53566U 22101AR  25330.80751600 -.00000408  00000+0 -75235-5 0  9991
2 53566  53.2150 155.9650 0001466  88.6872 271.4288 15.08837726181605
STARLINK-4585           
1 53567U 22101AS  25330.75233296 -.00003226  00000+0 -18462-3 0  9990
2 53567  53.2140 156.3306 0001746  90.8637 269.2555 15.08844684180908
STARLINK-4583           
1 53568U 22101AT  25330.79647319  .00000794  00000+0  67999-4 0  9995
2 53568  53.2161 155.8939 0001518  87.9030 272.2136 15.08831325181604
STARLINK-4582           
1 53569U 22101AU  25330.81119854 -.00000254  00000+0  21690-5 0  9998
2 53569  53.2149 155.9885 0001626  91.8035 268.3143 15.08839179181587
STARLINK-4550           
1 53570U 22101AV  25330.80014782 -.00000086  00000+0  12672-4 0  9995
2 53570  53.2153 155.9180 0001420  90.1714 269.9440 15.08837732181603
STARLINK-4584           
1 53571U 22101AW  25330.73758558  .00002981  00000+0  20532-3 0  9992
2 53571  53.2159 156.2338 0001547 112.6590 247.4566 15.08834394181590
STARLINK-4555           
1 53572U 22101AX  25330.84427873  .00002081  00000+0  14880-3 0  9998
2 53572  53.2157 155.4869 0001671  79.5167 280.6013 15.08837569180927
STARLINK-4559           
1 53574U 22101AZ  25330.84796169  .00000626  00000+0  57450-4 0  9991
2 53574  53.2152 155.5072 0001480  89.3853 270.7309 15.08839722180921
STARLINK-4551           
1 53575U 22101BA  25330.78908746  .00001313  00000+0  10060-3 0  9990
2 53575  53.2152 155.8489 0001475  81.9637 278.1522 15.08829457181608
STARLINK-4581           
1 53576U 22101BB  25330.98877563  .00001590  00000+0  11796-3 0  9999
2 53576  53.2161 154.9603 0001555  90.2163 269.9007 15.08846639181767
STARLINK-4553           
1 53577U 22101BC  25330.78540317  .00000334  00000+0  39092-4 0  9997
2 53577  53.2150 155.8276 0001441  93.4764 266.6393 15.08843338181730
STARLINK-4556           
1 53578U 22101BD  25330.84060500  .00001571  00000+0  11674-3 0  9995
2 53578  53.2150 155.4600 0001321  87.7155 272.3988 15.08843438180920
STARLINK-4580           
1 53579U 22101BE  25330.70443049  .00000521  00000+0  50798-4 0  9999
2 53579  53.2141 156.0316 0001398  87.2307 272.8845 15.08848991180904
CHUANGXIN 16A (CX-16A)  
1 53586U 22102A   25330.72955560  .00002971  00000+0  19385-3 0  9993
2 53586  28.9945 210.2590 0004977  34.9402 325.1523 15.04953625178988
BEIJING-3B              
1 53587U 22103A   25331.17700503  .00001790  00000+0  20213-3 0  9990
2 53587  97.8221  46.8797 0026988 352.5952   7.4862 14.87544888177069
STARLINK-4691           
1 53588U 22104A   25330.37055463  .00000350  00000+0  40070-4 0  9996
2 53588  53.2187 348.1872 0001445  91.0539 269.0619 15.08845976180499
STARLINK-4673           
1 53589U 22104B   25331.01452781  .00001174  00000+0  91887-4 0  9990
2 53589  53.2170 345.0995 0001521  98.3668 261.7496 15.08829900180448
STARLINK-4689           
1 53590U 22104C   25331.02924727  .00001764  00000+0  12887-3 0  9994
2 53590  53.2189 345.1900 0001275  87.7258 272.3880 15.08852601180461
